NORAD_CAT_ID,OBJECT_NAME,OBJECT_TYPE,EPOCH,MEAN_MOTION,ECCENTRICITY,INCLINATION,RA_OF_ASC_NODE,ARG_OF_PERICENTER,MEAN_ANOMALY,BSTAR,MEAN_MOTION_DOT,MEAN_MOTION_DDOT,TLE_LINE0,TLE_LINE1,TLE_LINE2,SEMIMAJOR_AXIS,PERIOD,APOGEE,PERIGEE,DECAYED
52335.0,STARLINK-3814,PAYLOAD,2022-05-16 22:00:00,15.71890327,0.0001074,53.2176,351.9979,91.2998,243.6522,-0.0059126,-0.00721095,0.0,0 STARLINK-3814,1 52335U 22045E   22136.91667824 -.00721095  00000-0 -59126-2 0  9999,2 52335  53.2176 351.9979 0001074  91.2998 243.6522 15.71890327  1308,6731.632,91.609,354.22,352.774,0.0
52335.0,STARLINK-3814,PAYLOAD,2022-05-17 06:00:00,15.71379151,0.0001002,53.2173,350.3502,95.1321,326.8625,-0.006019,-0.00718496,0.0,0 STARLINK-3814,1 52335U 22045E   22137.25001157 -.00718496  00000-0 -60190-2 0  9992,2 52335  53.2173 350.3502 0001002  95.1321 326.8625 15.71379151  5280,6733.092,91.639,355.631,354.282,0.0
52335.0,STARLINK-3814,PAYLOAD,2022-05-17 14:00:01,15.70869065,0.0001172,53.2175,348.7036,86.9919,61.4974,-0.0061378,-0.00717178,0.0,0 STARLINK-3814,1 52335U 22045E   22137.58335648 -.00717178  00000-0 -61378-2 0  9998,2 52335  53.2175 348.7036 0001172  86.9919  61.4974 15.70869065  1309,6734.549,91.669,357.20300000000015,355.625,0.0
52335.0,STARLINK-3814,PAYLOAD,2022-05-17 22:00:01,15.70359278,0.0001232,53.2173,347.0615,82.831,151.4736,-0.0062847,-0.00718624,0.0,0 STARLINK-3814,1 52335U 22045E   22137.91668981 -.00718624  00000-0 -62847-2 0  9993,2 52335  53.2173 347.0615 0001232  82.8310 151.4736 15.70359278  1305,6736.005999999999,91.699,358.701,357.042,0.0
52335.0,STARLINK-3814,PAYLOAD,2022-05-18 06:00:00,15.69850321,0.0001104,53.2174,345.4175,108.6775,210.7652,-0.0064348,-0.00720089,0.0,0 STARLINK-3814,1 52335U 22045E   22138.25001157 -.00720089  00000-0 -64348-2 0  9993,2 52335  53.2174 345.4175 0001104 108.6775 210.7652 15.69850321  5436,6737.462,91.728,360.071,358.583,0.0
52335.0,STARLINK-3814,PAYLOAD,2022-05-18 14:00:01,15.69338273,0.0001046,53.2175,343.7748,91.9252,312.1092,-0.0065328,-0.0071594,0.0,0 STARLINK-3814,1 52335U 22045E   22138.58334491 -.00715940  00000-0 -65328-2 0  9998,2 52335  53.2175 343.7748 0001046  91.9252 312.1092 15.69338273  1307,6738.928000000001,91.758,361.49800000000016,360.088,0.0
52335.0,STARLINK-3814,PAYLOAD,2022-05-18 22:00:00,15.68829267,0.0001217,53.2176,342.1364,70.957,57.0537,-0.0066886,-0.00717564,0.0,0 STARLINK-3814,1 52335U 22045E   22138.91667824 -.00717564  00000-0 -66886-2 0  9998,2 52335  53.2176 342.1364 0001217  70.9570  57.0537 15.68829267  1301,6740.385,91.788,363.071,361.43,0.0
52335.0,STARLINK-3814,PAYLOAD,2022-05-19 06:00:00,15.68321467,0.0001202,53.2175,340.4957,95.8457,115.5302,-0.0068728,-0.00721631,0.0,0 STARLINK-3814,1 52335U 22045E   22139.25001157 -.00721631  00000-0 -68728-2 0  9994,2 52335  53.2175 340.4957 0001202  95.8457 115.5302 15.68321467  5597,6741.84,91.818,364.516,362.895,0.0
52335.0,STARLINK-3814,PAYLOAD,2022-05-19 14:00:01,15.67809829,0.0001136,53.2176,338.8571,90.8159,203.3781,-0.0069742,-0.00717365,0.0,0 STARLINK-3814,1 52335U 22045E   22139.58335648 -.00717365  00000-0 -69742-2 0  9991,2 52335  53.2176 338.8571 0001136  90.8159 203.3781 15.67809829  1305,6743.307,91.848,365.93800000000016,364.406,0.0
52335.0,STARLINK-3814,PAYLOAD,2022-05-19 22:00:00,15.67300257,0.0001053,53.2175,337.2226,85.6325,290.6345,-0.0071423999999999,-0.00719285,0.0,0 STARLINK-3814,1 52335U 22045E   22139.91667824 -.00719285  00000-0 -71424-2 0  9995,2 52335  53.2175 337.2226 0001053  85.6325 290.6345 15.67300257  1305,6744.768,91.878,367.344,365.923,0.0
52335.0,STARLINK-3814,PAYLOAD,2022-05-20 14:00:01,15.66278602,0.0001222,53.2175,333.9507,83.5165,95.1926,-0.0074005,-0.00715282,0.0,0 STARLINK-3814,1 52335U 22045E   22140.58334491 -.00715282  00000-0 -74005-2 0  9992,2 52335  53.2175 333.9507 0001222  83.5165  95.1926 15.66278602  5806,6747.701,91.938,370.391,368.741,0.0
52335.0,STARLINK-3814,PAYLOAD,2022-05-20 22:00:00,15.65768871,0.0001212,53.2176,332.3197,89.1568,169.8522,-0.0075652,-0.00716188,0.0,0 STARLINK-3814,1 52335U 22045E   22140.91667824 -.00716188  00000-0 -75652-2 0  9993,2 52335  53.2176 332.3197 0001212  89.1568 169.8522 15.65768871  1306,6749.165,91.968,371.848,370.212,0.0
52335.0,STARLINK-3814,PAYLOAD,2022-05-21 06:00:00,15.65260459,0.0001037,53.2176,330.6863,91.0248,247.6729,-0.007753,-0.00718813,0.0,0 STARLINK-3814,1 52335U 22045E   22141.25001157 -.00718813  00000-0 -77530-2 0  9996,2 52335  53.2176 330.6863 0001037  91.0248 247.6729 15.65260459  1302,6750.627,91.997,373.192,371.792,0.0
52335.0,STARLINK-3814,PAYLOAD,2022-05-21 14:00:01,15.64749712,0.0001081,53.2177,329.0555,70.5368,347.3019,-0.0078921,-0.00717034,0.0,0 STARLINK-3814,1 52335U 22045E   22141.58335648 -.00717034  00000-0 -78921-2 0  9996,2 52335  53.2177 329.0555 0001081  70.5368 347.3019 15.64749712  5966,6752.096,92.027,374.691,373.231,0.0
52335.0,STARLINK-3814,PAYLOAD,2022-05-21 22:00:00,15.6423686,0.0001185,53.2176,327.4281,74.3645,61.8717,-0.0079995,-0.00712477,0.0,0 STARLINK-3814,1 52335U 22045E   22141.91667824 -.00712477  00000-0 -79995-2 0  9995,2 52335  53.2176 327.4281 0001185  74.3645  61.8717 15.64236860  1300,6753.571,92.058,376.237,374.636,0.0
52335.0,STARLINK-3814,PAYLOAD,2022-05-22 14:00:01,15.63220008,0.0001177,53.2176,324.1714,81.0166,210.3063,-0.0083842,-0.00716814,0.0,0 STARLINK-3814,1 52335U 22045E   22142.58334491 -.00716814  00000-0 -83842-2 0  9995,2 52335  53.2176 324.1714 0001177  81.0166 210.3063 15.63220008  6114,6756.5,92.118,379.16,377.57,0.0
52335.0,STARLINK-3814,PAYLOAD,2022-05-22 22:00:01,15.62708239,0.0001026,53.2174,322.5477,90.6739,277.3381,-0.0085253999999999,-0.00714497,0.0,0 STARLINK-3814,1 52335U 22045E   22142.91668981 -.00714497  00000-0 -85254-2 0  9990,2 52335  53.2174 322.5477 0001026  90.6739 277.3381 15.62708239  1303,6757.975,92.148,380.533,379.147,0.0
52335.0,STARLINK-3814,PAYLOAD,2022-05-23 14:00:01,15.61688617,0.0001247,53.2177,319.2985,74.4132,84.9449,-0.0088707,-0.0071436999999999,0.0,0 STARLINK-3814,1 52335U 22045E   22143.58334491 -.00714370  00000-0 -88707-2 0  9996,2 52335  53.2177 319.2985 0001247  74.4132  84.9449 15.61688617  1308,6760.916,92.208,383.624,381.93800000000016,0.0
52335.0,STARLINK-3814,PAYLOAD,2022-05-23 16:00:00,15.61560798,0.0001211,53.2176,318.8936,79.7699,188.3417,-0.0089077999999999,-0.00713831,0.0,0 STARLINK-3814,1 52335U 22045E   22143.66667824 -.00713831  00000-0 -89078-2 0  9997,2 52335  53.2176 318.8936 0001211  79.7699 188.3417 15.61560798  6280,6761.285,92.215,383.969,382.331,0.0
52335.0,STARLINK-3814,PAYLOAD,2022-05-23 22:00:01,15.61175542,0.0001243,53.2176,317.6781,80.6152,153.5939,-0.0089781,-0.00709176,0.0,0 STARLINK-3814,1 52335U 22045E   22143.91668981 -.00709176  00000-0 -89781-2 0  9998,2 52335  53.2176 317.6781 0001243  80.6152 153.5939 15.61175542  1305,6762.397,92.238,385.103,383.422,0.0
52335.0,STARLINK-3814,PAYLOAD,2022-05-24 12:22:08,15.60927278,9.61e-05,53.2127,314.7778,132.1762,227.9335,-0.00386,-0.00317122,0.0,0 STARLINK-3814,1 52335U 22045E   22144.51537264 -.00317122  00000-0 -38600-2 0  9994,2 52335  53.2127 314.7778 0000961 132.1762 227.9335 15.60927278  6425,6763.114000000001,92.253,385.629,384.329,0.0
52335.0,STARLINK-3814,PAYLOAD,2022-05-24 22:00:00,15.59645395,0.0001083,53.2173,312.8201,79.7752,15.0501,-0.0095166,-0.00708597,0.0,0 STARLINK-3814,1 52335U 22045E   22144.91667824 -.00708597  00000-0 -95166-2 0  9994,2 52335  53.2173 312.8201 0001083  79.7752  15.0501 15.59645395  6489,6766.82,92.329,389.417,387.952,0.0
52335.0,STARLINK-3814,PAYLOAD,2022-05-25 14:00:01,15.58628685,0.0001283,53.2175,309.5859,73.8578,165.0239,-0.0099696,-0.00713618,0.0,0 STARLINK-3814,1 52335U 22045E   22145.58334491 -.00713618  00000-0 -99696-2 0  9991,2 52335  53.2175 309.5859 0001283  73.8578 165.0239 15.58628685  1308,6769.762,92.389,392.496,390.758,0.0
52335.0,STARLINK-3814,PAYLOAD,2022-05-25 22:00:00,15.58117071,0.0001119,53.2174,307.9729,77.7824,232.208,-0.010116,-0.00710413,0.0,0 STARLINK-3814,1 52335U 22045E   22145.91667824 -.00710413  00000-0 -10116-1 0  9996,2 52335  53.2174 307.9729 0001119  77.7824 232.2080 15.58117071  6634,6771.244000000002,92.419,393.866,392.351,0.0
52335.0,STARLINK-3814,PAYLOAD,2022-05-26 14:00:01,15.57099954,0.0001262999999999,53.2176,304.7465,56.5467,33.8238,-0.010595,-0.00715574,0.0,0 STARLINK-3814,1 52335U 22045E   22146.58334491 -.00715574  00000-0 -10595-1 0  9995,2 52335  53.2176 304.7465 0001263  56.5467  33.8238 15.57099954  1303,6774.191999999999,92.48,396.913,395.202,0.0
52335.0,STARLINK-3814,PAYLOAD,2022-05-26 20:00:01,15.56716266,0.0001101,53.2176,303.5394,71.919,340.4618,-0.010719,-0.00713727,0.0,0 STARLINK-3814,1 52335U 22045E   22146.83334491 -.00713727  00000-0 -10719-1 0  9999,2 52335  53.2176 303.5394 0001101  71.9190 340.4618 15.56716266  6783,6775.305,92.502,397.916,396.424,0.0
52335.0,STARLINK-3814,PAYLOAD,2022-05-26 22:00:00,15.56585952,0.0001258,53.2173,303.1367,71.19,88.4519,-0.010682,-0.00708314,0.0,0 STARLINK-3814,1 52335U 22045E   22146.91667824 -.00708314  00000-0 -10682-1 0  9992,2 52335  53.2173 303.1367 0001258  71.1900  88.4519 15.56585952  1308,6775.683000000001,92.51,398.401,396.696,0.0
52335.0,STARLINK-3814,PAYLOAD,2022-05-27 01:55:50,15.58158945,0.0003346,53.2123,302.3474,318.2199,41.8559,0.00021143,0.00015759,0.0,0 STARLINK-3814,1 52335U 22045E   22147.08045105  .00015759  00000-0  21143-3 0  9991,2 52335  53.2123 302.3474 0003346 318.2199  41.8559 15.58158945  6827,6771.121999999999,92.417,395.253,390.722,0.0
52335.0,STARLINK-3814,PAYLOAD,2022-05-27 14:00:01,15.55569311,0.0001306,53.2176,299.9178,58.4361,237.9087,-0.011187,-0.00713707,0.0,0 STARLINK-3814,1 52335U 22045E   22147.58334491 -.00713707  00000-0 -11187-1 0  9990,2 52335  53.2176 299.9178 0001306  58.4361 237.9087 15.55569311  1307,6778.635,92.571,401.386,399.615,0.0
